[{"OBJECT_NAME":"RAPTOR1","OBJECT_ID":"2024-028C","EPOCH":"2026-03-09T12:42:01.746432","MEAN_MOTION":13.70310646,"ECCENTRICITY":0.0011567,"INCLINATION":39.9898,"RA_OF_ASC_NODE":141.7891,"ARG_OF_PERICENTER":33.7881,"MEAN_ANOMALY":326.3601,"EPHEMERIS_TYPE":0,"CLASSIFICATION_TYPE":"U","NORAD_CAT_ID":58957,"ELEMENT_SET_NO":999,"REV_AT_EPOCH":10338,"BSTAR":4.5249e-5,"MEAN_MOTION_DOT":-3.8e-7,"MEAN_MOTION_DDOT":0},{"OBJECT_NAME":"COSMOS 1275 DEB","OBJECT_ID":"1981-053AE","EPOCH":"2026-03-09T13:23:52.552032","MEAN_MOTION":13.7502507,"ECCENTRICITY":0.00981912,"INCLINATION":82.9316,"RA_OF_ASC_NODE":80.2291,"ARG_OF_PERICENTER":260.6069,"MEAN_ANOMALY":227.484,"EPHEMERIS_TYPE":0,"CLASSIFICATION_TYPE":"U","NORAD_CAT_ID":12674,"ELEMENT_SET_NO":999,"REV_AT_EPOCH":22613,"BSTAR":0.00071964361,"MEAN_MOTION_DOT":7.25e-6,"MEAN_MOTION_DDOT":0}]
